ONEWEB-0282             
1 49000U 21060AK  25249.09579814  .00000118  00000+0  27461-3 0  9999
2 49000  87.8995 285.4059 0001676  93.2295 266.9028 13.16594303202220
ONEWEB-0283             
1 49001U 21060AL  25249.16071114  .00000137  00000+0  32437-3 0  9998
2 49001  87.8987 285.3959 0001729  89.2438 270.8891 13.16594819202249
ONEWEB-0284             
1 49002U 21060AM  25249.15438283  .00000116  00000+0  26941-3 0  9992
2 49002  87.9004 285.3770 0001845 103.2780 256.8557 13.16594557202228
ONEWEB-0285             
1 49075U 21075A   25249.15310546 -.00000296  00000+0 -85933-3 0  9996
2 49075  87.8885  47.0948 0001642  94.1495 265.9822 13.12443052197958
ONEWEB-0286             
1 49076U 21075B   25249.13497202  .00000298  00000+0  79410-3 0  9993
2 49076  87.8898  47.1327 0001863  93.7915 266.3427 13.12441162197307
ONEWEB-0287             
1 49077U 21075C   25249.24129641  .00000087  00000+0  18994-3 0  9991
2 49077  87.9041  62.3487 0002012  93.7595 266.3767 13.17646415196237
ONEWEB-0288             
1 49078U 21075D   25248.95832216  .00000198  00000+0  51383-3 0  9990
2 49078  87.8889  47.1286 0001693  98.3882 261.7438 13.12444022197903
ONEWEB-0289             
1 49079U 21075E   25249.20404482 -.00000023  00000+0 -92406-4 0  9991
2 49079  87.9026  62.3825 0001454 103.2601 256.8693 13.17648237196801
ONEWEB-0290             
1 49080U 21075F   25249.17718337  .00000074  00000+0  15726-3 0  9999
2 49080  87.9034  62.3416 0001158 102.0317 258.0944 13.17649515196218
ONEWEB-0291             
1 49081U 21075G   25249.23795569 -.00000042  00000+0 -14032-3 0  9995
2 49081  87.9040  62.3340 0001853 102.4794 257.6545 13.17649631196218
ONEWEB-0293             
1 49082U 21075H   25249.18731889  .00000125  00000+0  28909-3 0  9993
2 49082  87.9028  62.3740 0001603  94.4571 265.6744 13.17650980196236
ONEWEB-0294             
1 49083U 21075J   25249.19352596  .00000378  00000+0  10151-2 0  9998
2 49083  87.8888  47.0820 0001430 109.3294 250.7989 13.12443037197320
ONEWEB-0295             
1 49084U 21075K   25249.18646298  .00000012  00000+0 -35141-5 0  9998
2 49084  87.9037  62.3771 0001932 100.0579 260.0770 13.17648242196190
ONEWEB-0296             
1 49085U 21075L   25249.17404977 -.00000139  00000+0 -42153-3 0  9994
2 49085  87.8887  47.0917 0001858 111.0951 249.0376 13.12444054197323
ONEWEB-0297             
1 49086U 21075M   25249.20487535  .00000453  00000+0  12250-2 0  9991
2 49086  87.8881  47.1236 0001767  93.9876 266.1454 13.12443070197937
ONEWEB-0298             
1 49087U 21075N   25249.19082610  .00000091  00000+0  20218-3 0  9997
2 49087  87.9027  62.3713 0001728  88.7417 271.3913 13.17651400196222
ONEWEB-0299             
1 49088U 21075P   25249.19237522  .00000028  00000+0  40134-4 0  9992
2 49088  87.9043  62.3269 0001941  91.8352 268.3002 13.17650441196204
