[{"OBJECT_NAME":"ONEWEB-0282","OBJECT_ID":"2021-060AK","EPOCH":"2025-09-06T02:17:56.959296","MEAN_MOTION":13.16594303,"ECCENTRICITY":0.00016768,"INCLINATION":87.8995,"RA_OF_ASC_NODE":285.4059,"ARG_OF_PERICENTER":93.2295,"MEAN_ANOMALY":266.9028,"EPHEMERIS_TYPE":0,"CLASSIFICATION_TYPE":"U","NORAD_CAT_ID":49000,"ELEMENT_SET_NO":999,"REV_AT_EPOCH":20222,"BSTAR":0.00027461408,"MEAN_MOTION_DOT":1.18e-6,"MEAN_MOTION_DDOT":0},{"OBJECT_NAME":"ONEWEB-0283","OBJECT_ID":"2021-060AL","EPOCH":"2025-09-06T03:51:25.442496","MEAN_MOTION":13.16594819,"ECCENTRICITY":0.00017295,"INCLINATION":87.8987,"RA_OF_ASC_NODE":285.3959,"ARG_OF_PERICENTER":89.2438,"MEAN_ANOMALY":270.8891,"EPHEMERIS_TYPE":0,"CLASSIFICATION_TYPE":"U","NORAD_CAT_ID":49001,"ELEMENT_SET_NO":999,"REV_AT_EPOCH":20224,"BSTAR":0.00032437024,"MEAN_MOTION_DOT":1.37e-6,"MEAN_MOTION_DDOT":0},{"OBJECT_NAME":"ONEWEB-0284","OBJECT_ID":"2021-060AM","EPOCH":"2025-09-06T03:42:18.676512","MEAN_MOTION":13.16594557,"ECCENTRICITY":0.00018454,"INCLINATION":87.9004,"RA_OF_ASC_NODE":285.377,"ARG_OF_PERICENTER":103.278,"MEAN_ANOMALY":256.8557,"EPHEMERIS_TYPE":0,"CLASSIFICATION_TYPE":"U","NORAD_CAT_ID":49002,"ELEMENT_SET_NO":999,"REV_AT_EPOCH":20222,"BSTAR":0.00026940809,"MEAN_MOTION_DOT":1.16e-6,"MEAN_MOTION_DDOT":0},{"OBJECT_NAME":"ONEWEB-0285","OBJECT_ID":"2021-075A","EPOCH":"2025-09-06T03:40:28.311744","MEAN_MOTION":13.12443052,"ECCENTRICITY":0.0001642,"INCLINATION":87.8885,"RA_OF_ASC_NODE":47.0948,"ARG_OF_PERICENTER":94.1495,"MEAN_ANOMALY":265.9822,"EPHEMERIS_TYPE":0,"CLASSIFICATION_TYPE":"U","NORAD_CAT_ID":49075,"ELEMENT_SET_NO":999,"REV_AT_EPOCH":19795,"BSTAR":-0.00085932848,"MEAN_MOTION_DOT":-2.96e-6,"MEAN_MOTION_DDOT":0},{"OBJECT_NAME":"ONEWEB-0286","OBJECT_ID":"2021-075B","EPOCH":"2025-09-06T03:14:21.582528","MEAN_MOTION":13.12441162,"ECCENTRICITY":0.00018639,"INCLINATION":87.8898,"RA_OF_ASC_NODE":47.1327,"ARG_OF_PERICENTER":93.7915,"MEAN_ANOMALY":266.3427,"EPHEMERIS_TYPE":0,"CLASSIFICATION_TYPE":"U","NORAD_CAT_ID":49076,"ELEMENT_SET_NO":999,"REV_AT_EPOCH":19730,"BSTAR":0.00079410379,"MEAN_MOTION_DOT":2.98e-6,"MEAN_MOTION_DDOT":0},{"OBJECT_NAME":"ONEWEB-0287","OBJECT_ID":"2021-075C","EPOCH":"2025-09-06T05:47:28.009824","MEAN_MOTION":13.17646415,"ECCENTRICITY":0.00020129,"INCLINATION":87.9041,"RA_OF_ASC_NODE":62.3487,"ARG_OF_PERICENTER":93.7595,"MEAN_ANOMALY":266.3767,"EPHEMERIS_TYPE":0,"CLASSIFICATION_TYPE":"U","NORAD_CAT_ID":49077,"ELEMENT_SET_NO":999,"REV_AT_EPOCH":19623,"BSTAR":0.00018994073,"MEAN_MOTION_DOT":8.7e-7,"MEAN_MOTION_DDOT":0},{"OBJECT_NAME":"ONEWEB-0288","OBJECT_ID":"2021-075D","EPOCH":"2025-09-05T22:59:59.034624","MEAN_MOTION":13.12444022,"ECCENTRICITY":0.0001693,"INCLINATION":87.8889,"RA_OF_ASC_NODE":47.1286,"ARG_OF_PERICENTER":98.3882,"MEAN_ANOMALY":261.7438,"EPHEMERIS_TYPE":0,"CLASSIFICATION_TYPE":"U","NORAD_CAT_ID":49078,"ELEMENT_SET_NO":999,"REV_AT_EPOCH":19790,"BSTAR":0.00051383184,"MEAN_MOTION_DOT":1.98e-6,"MEAN_MOTION_DDOT":0},{"OBJECT_NAME":"ONEWEB-0289","OBJECT_ID":"2021-075E","EPOCH":"2025-09-06T04:53:49.472448","MEAN_MOTION":13.17648237,"ECCENTRICITY":0.00014543,"INCLINATION":87.9026,"RA_OF_ASC_NODE":62.3825,"ARG_OF_PERICENTER":103.2601,"MEAN_ANOMALY":256.8693,"EPHEMERIS_TYPE":0,"CLASSIFICATION_TYPE":"U","NORAD_CAT_ID":49079,"ELEMENT_SET_NO":999,"REV_AT_EPOCH":19680,"BSTAR":-9.2405969e-5,"MEAN_MOTION_DOT":-2.3e-7,"MEAN_MOTION_DDOT":0},{"OBJECT_NAME":"ONEWEB-0290","OBJECT_ID":"2021-075F","EPOCH":"2025-09-06T04:15:08.643168","MEAN_MOTION":13.17649515,"ECCENTRICITY":0.0001158,"INCLINATION":87.9034,"RA_OF_ASC_NODE":62.3416,"ARG_OF_PERICENTER":102.0317,"MEAN_ANOMALY":258.0944,"EPHEMERIS_TYPE":0,"CLASSIFICATION_TYPE":"U","NORAD_CAT_ID":49080,"ELEMENT_SET_NO":999,"REV_AT_EPOCH":19621,"BSTAR":0.00015726027,"MEAN_MOTION_DOT":7.4e-7,"MEAN_MOTION_DDOT":0},{"OBJECT_NAME":"ONEWEB-0291","OBJECT_ID":"2021-075G","EPOCH":"2025-09-06T05:42:39.371616","MEAN_MOTION":13.17649631,"ECCENTRICITY":0.00018539,"INCLINATION":87.904,"RA_OF_ASC_NODE":62.334,"ARG_OF_PERICENTER":102.4794,"MEAN_ANOMALY":257.6545,"EPHEMERIS_TYPE":0,"CLASSIFICATION_TYPE":"U","NORAD_CAT_ID":49081,"ELEMENT_SET_NO":999,"REV_AT_EPOCH":19621,"BSTAR":-0.00014031511,"MEAN_MOTION_DOT":-4.2e-7,"MEAN_MOTION_DDOT":0},{"OBJECT_NAME":"ONEWEB-0293","OBJECT_ID":"2021-075H","EPOCH":"2025-09-06T04:29:44.352096","MEAN_MOTION":13.1765098,"ECCENTRICITY":0.00016034,"INCLINATION":87.9028,"RA_OF_ASC_NODE":62.374,"ARG_OF_PERICENTER":94.4571,"MEAN_ANOMALY":265.6744,"EPHEMERIS_TYPE":0,"CLASSIFICATION_TYPE":"U","NORAD_CAT_ID":49082,"ELEMENT_SET_NO":999,"REV_AT_EPOCH":19623,"BSTAR":0.0002890921,"MEAN_MOTION_DOT":1.25e-6,"MEAN_MOTION_DDOT":0},{"OBJECT_NAME":"ONEWEB-0294","OBJECT_ID":"2021-075J","EPOCH":"2025-09-06T04:38:40.642944","MEAN_MOTION":13.12443037,"ECCENTRICITY":0.00014304,"INCLINATION":87.8888,"RA_OF_ASC_NODE":47.082,"ARG_OF_PERICENTER":109.3294,"MEAN_ANOMALY":250.7989,"EPHEMERIS_TYPE":0,"CLASSIFICATION_TYPE":"U","NORAD_CAT_ID":49083,"ELEMENT_SET_NO":999,"REV_AT_EPOCH":19732,"BSTAR":0.0010150545,"MEAN_MOTION_DOT":3.78e-6,"MEAN_MOTION_DDOT":0},{"OBJECT_NAME":"ONEWEB-0295","OBJECT_ID":"2021-075K","EPOCH":"2025-09-06T04:28:30.401472","MEAN_MOTION":13.17648242,"ECCENTRICITY":0.00019323,"INCLINATION":87.9037,"RA_OF_ASC_NODE":62.3771,"ARG_OF_PERICENTER":100.0579,"MEAN_ANOMALY":260.077,"EPHEMERIS_TYPE":0,"CLASSIFICATION_TYPE":"U","NORAD_CAT_ID":49084,"ELEMENT_SET_NO":999,"REV_AT_EPOCH":19619,"BSTAR":-3.514065e-6,"MEAN_MOTION_DOT":1.2e-7,"MEAN_MOTION_DDOT":0},{"OBJECT_NAME":"ONEWEB-0296","OBJECT_ID":"2021-075L","EPOCH":"2025-09-06T04:10:37.900128","MEAN_MOTION":13.12444054,"ECCENTRICITY":0.00018588,"INCLINATION":87.8887,"RA_OF_ASC_NODE":47.0917,"ARG_OF_PERICENTER":111.0951,"MEAN_ANOMALY":249.0376,"EPHEMERIS_TYPE":0,"CLASSIFICATION_TYPE":"U","NORAD_CAT_ID":49085,"ELEMENT_SET_NO":999,"REV_AT_EPOCH":19732,"BSTAR":-0.00042153008,"MEAN_MOTION_DOT":-1.39e-6,"MEAN_MOTION_DDOT":0},{"OBJECT_NAME":"ONEWEB-0297","OBJECT_ID":"2021-075M","EPOCH":"2025-09-06T04:55:01.230240","MEAN_MOTION":13.1244307,"ECCENTRICITY":0.00017672,"INCLINATION":87.8881,"RA_OF_ASC_NODE":47.1236,"ARG_OF_PERICENTER":93.9876,"MEAN_ANOMALY":266.1454,"EPHEMERIS_TYPE":0,"CLASSIFICATION_TYPE":"U","NORAD_CAT_ID":49086,"ELEMENT_SET_NO":999,"REV_AT_EPOCH":19793,"BSTAR":0.0012249868,"MEAN_MOTION_DOT":4.53e-6,"MEAN_MOTION_DDOT":0},{"OBJECT_NAME":"ONEWEB-0298","OBJECT_ID":"2021-075N","EPOCH":"2025-09-06T04:34:47.375040","MEAN_MOTION":13.176514,"ECCENTRICITY":0.00017284,"INCLINATION":87.9027,"RA_OF_ASC_NODE":62.3713,"ARG_OF_PERICENTER":88.7417,"MEAN_ANOMALY":271.3913,"EPHEMERIS_TYPE":0,"CLASSIFICATION_TYPE":"U","NORAD_CAT_ID":49087,"ELEMENT_SET_NO":999,"REV_AT_EPOCH":19622,"BSTAR":0.00020217913,"MEAN_MOTION_DOT":9.1e-7,"MEAN_MOTION_DDOT":0},{"OBJECT_NAME":"ONEWEB-0299","OBJECT_ID":"2021-075P","EPOCH":"2025-09-06T04:37:01.219008","MEAN_MOTION":13.17650441,"ECCENTRICITY":0.00019411,"INCLINATION":87.9043,"RA_OF_ASC_NODE":62.3269,"ARG_OF_PERICENTER":91.8352,"MEAN_ANOMALY":268.3002,"EPHEMERIS_TYPE":0,"CLASSIFICATION_TYPE":"U","NORAD_CAT_ID":49088,"ELEMENT_SET_NO":999,"REV_AT_EPOCH":19620,"BSTAR":4.013448e-5,"MEAN_MOTION_DOT":2.8e-7,"MEAN_MOTION_DDOT":0}]
